[{"OBJECT_NAME":"ICEYE-X2","OBJECT_ID":"2018-099AU","EPOCH":"2026-03-09T22:35:53.986848","MEAN_MOTION":15.16430937,"ECCENTRICITY":0.00088624,"INCLINATION":97.4491,"RA_OF_ASC_NODE":124.5633,"ARG_OF_PERICENTER":290.4063,"MEAN_ANOMALY":69.6218,"EPHEMERIS_TYPE":0,"CLASSIFICATION_TYPE":"U","NORAD_CAT_ID":43800,"ELEMENT_SET_NO":999,"REV_AT_EPOCH":39777,"BSTAR":0.00020585187,"MEAN_MOTION_DOT":3.939e-5,"MEAN_MOTION_DDOT":0},{"OBJECT_NAME":"SCS-01 E","OBJECT_ID":"2025-100E","EPOCH":"2026-03-09T19:37:36.788160","MEAN_MOTION":15.18808974,"ECCENTRICITY":0.00041864,"INCLINATION":97.4267,"RA_OF_ASC_NODE":144.0575,"ARG_OF_PERICENTER":16.3517,"MEAN_ANOMALY":343.7852,"EPHEMERIS_TYPE":0,"CLASSIFICATION_TYPE":"U","NORAD_CAT_ID":63986,"ELEMENT_SET_NO":999,"REV_AT_EPOCH":4552,"BSTAR":0.00039415521,"MEAN_MOTION_DOT":8.14e-5,"MEAN_MOTION_DDOT":0}]
